start=new Date('2023-04-22T00:00:00.000Z').valueOf();
sats=[{"MEAN_ANOMALY":"133.3664","RA_OF_ASC_NODE":"173.4742","NORAD_CAT_ID":"53191","EPOCH":"2023-04-21T14:25:58.842336","ELEMENT_SET_NO":"999","BSTAR":"0.00005384100000","REF_FRAME":"TEME","SITE":"AFWTR","MEAN_MOTION":"15.01260301","TIME_SYSTEM":"UTC","APOAPSIS":"565.414","FILE":"3891716","MEAN_MOTION_DDOT":"0.0000000000000","ECCENTRICITY":"0.00034620","INCLINATION":"97.6550","ARG_OF_PERICENTER":"226.7272","CLASSIFICATION_TYPE":"U","SEMIMAJOR_AXIS":"6941.146","TLE_LINE1":"1 53191U 22084C   23111.60137549  .00000632  00000-0  53841-4 0  9994","GP_ID":"230530075","COUNTRY_CODE":"US","RCS_SIZE":"LARGE","LAUNCH_DATE":"2022-07-22","CENTER_NAME":"EARTH","PERIOD":"95.919","MEAN_MOTION_DOT":"0.00000632","EPHEMERIS_TYPE":"0","REV_AT_EPOCH":"4131","OBJECT_NAME":"STARLINK-4369","OBJECT_TYPE":"PAYLOAD","MEAN_ELEMENT_THEORY":"SGP4","DECAY_DATE":null,"TLE_LINE2":"2 53191  97.6550 173.4742 0003462 226.7272 133.3664 15.01260301 41318","PERIAPSIS":"560.608","OBJECT_ID":"2022-084C"},{"ARG_OF_PERICENTER":"222.9007","ECCENTRICITY":"0.00029750","INCLINATION":"97.6551","COUNTRY_CODE":"US","TLE_LINE1":"1 53192U 22084D   23111.93278766  .00002897  00000-0  22999-3 0  9992","GP_ID":"230528829","SEMIMAJOR_AXIS":"6941.128","CLASSIFICATION_TYPE":"U","RCS_SIZE":"LARGE","MEAN_MOTION_DOT":"0.00002897","PERIOD":"95.919","LAUNCH_DATE":"2022-07-22","CENTER_NAME":"EARTH","REV_AT_EPOCH":"4203","EPHEMERIS_TYPE":"0","DECAY_DATE":null,"MEAN_ELEMENT_THEORY":"SGP4","OBJECT_TYPE":"PAYLOAD","OBJECT_NAME":"STARLINK-4375","PERIAPSIS":"560.928","TLE_LINE2":"2 53192  97.6551 173.8020 0002975 222.9007 137.1985 15.01266045 42034","OBJECT_ID":"2022-084D","MEAN_ANOMALY":"137.1985","RA_OF_ASC_NODE":"173.8020","ELEMENT_SET_NO":"999","BSTAR":"0.00022999000000","NORAD_CAT_ID":"53192","EPOCH":"2023-04-21T22:23:12.853824","REF_FRAME":"TEME","SITE":"AFWTR","MEAN_MOTION":"15.01266045","TIME_SYSTEM":"UTC","MEAN_MOTION_DDOT":"0.0000000000000","APOAPSIS":"565.058","FILE":"3891716"},{"ELEMENT_SET_NO":"999","BSTAR":"0.00001556500000","NORAD_CAT_ID":"53193","EPOCH":"2023-04-21T09:43:22.665216","REF_FRAME":"TEME","SITE":"AFWTR","MEAN_ANOMALY":"119.4438","RA_OF_ASC_NODE":"173.2810","TIME_SYSTEM":"UTC","MEAN_MOTION_DDOT":"0.0000000000000","APOAPSIS":"565.137","FILE":"3891529","MEAN_MOTION":"15.01257467","RCS_SIZE":"LARGE","MEAN_MOTION_DOT":"0.00000141","PERIOD":"95.920","LAUNCH_DATE":"2022-07-22","CENTER_NAME":"EARTH","ARG_OF_PERICENTER":"240.6482","INCLINATION":"97.6548","ECCENTRICITY":"0.00030500","COUNTRY_CODE":"US","TLE_LINE1":"1 53193U 22084E   23111.40512344  .00000141  00000-0  15565-4 0  9990","GP_ID":"230498921","SEMIMAJOR_AXIS":"6941.155","CLASSIFICATION_TYPE":"U","PERIAPSIS":"560.903","TLE_LINE2":"2 53193  97.6548 173.2810 0003050 240.6482 119.4438 15.01257467 42305","OBJECT_ID":"2022-084E","REV_AT_EPOCH":"4230","EPHEMERIS_TYPE":"0","MEAN_ELEMENT_THEORY":"SGP4","DECAY_DATE":null,"OBJECT_NAME":"STARLINK-4351","OBJECT_TYPE":"PAYLOAD"},{"ECCENTRICITY":"0.00036200","INCLINATION":"97.6550","ARG_OF_PERICENTER":"240.8473","CLASSIFICATION_TYPE":"U","TLE_LINE1":"1 53194U 22084F   23111.60322594  .00000705  00000-0  59452-4 0  9998","COUNTRY_CODE":"US","GP_ID":"230529323","SEMIMAJOR_AXIS":"6941.146","RCS_SIZE":"LARGE","LAUNCH_DATE":"2022-07-22","CENTER_NAME":"EARTH","MEAN_MOTION_DOT":"0.00000705","PERIOD":"95.919","EPHEMERIS_TYPE":"0","REV_AT_EPOCH":"4131","OBJECT_NAME":"STARLINK-4382","OBJECT_TYPE":"PAYLOAD","DECAY_DATE":null,"MEAN_ELEMENT_THEORY":"SGP4","TLE_LINE2":"2 53194  97.6550 173.4767 0003620 240.8473 119.2389 15.01260150 41313","PERIAPSIS":"560.499","OBJECT_ID":"2022-084F","MEAN_ANOMALY":"119.2389","RA_OF_ASC_NODE":"173.4767","EPOCH":"2023-04-21T14:28:38.721216","NORAD_CAT_ID":"53194","BSTAR":"0.00005945200000","ELEMENT_SET_NO":"999","SITE":"AFWTR","REF_FRAME":"TEME","MEAN_MOTION":"15.01260150","TIME_SYSTEM":"UTC","FILE":"3891716","APOAPSIS":"565.524","MEAN_MOTION_DDOT":"0.0000000000000"},{"SITE":"AFWTR","REF_FRAME":"TEME","EPOCH":"2023-04-21T22:20:53.675520","NORAD_CAT_ID":"53195","BSTAR":"0.00006428400000","ELEMENT_SET_NO":"999","RA_OF_ASC_NODE":"173.8028","MEAN_ANOMALY":"135.9296","FILE":"3891716","APOAPSIS":"564.986","MEAN_MOTION_DDOT":"0.0000000000000","TIME_SYSTEM":"UTC","MEAN_MOTION":"15.01263428","LAUNCH_DATE":"2022-07-22","CENTER_NAME":"EARTH","MEAN_MOTION_DOT":"0.00000767","PERIOD":"95.919","RCS_SIZE":"LARGE","CLASSIFICATION_TYPE":"U","TLE_LINE1":"1 53195U 22084G   23111.93117680  .00000767  00000-0  64284-4 0  9990","GP_ID":"230529575","COUNTRY_CODE":"US","SEMIMAJOR_AXIS":"6941.136","ARG_OF_PERICENTER":"224.1700","ECCENTRICITY":"0.00028600","INCLINATION":"97.6550","OBJECT_ID":"2022-084G","TLE_LINE2":"2 53195  97.6550 173.8028 0002860 224.1700 135.9296 15.01263428 42034","PERIAPSIS":"561.016","OBJECT_TYPE":"PAYLOAD","OBJECT_NAME":"STARLINK-4404","DECAY_DATE":null,"MEAN_ELEMENT_THEORY":"SGP4","EPHEMERIS_TYPE":"0","REV_AT_EPOCH":"4203"},{"MEAN_MOTION":"15.01275926","TIME_SYSTEM":"UTC","MEAN_MOTION_DDOT":"0.0000000000000","FILE":"3891529","APOAPSIS":"564.689","MEAN_ANOMALY":"162.7941","RA_OF_ASC_NODE":"173.0112","BSTAR":"0.00009256700000","ELEMENT_SET_NO":"999","EPOCH":"2023-04-21T03:11:47.499360","NORAD_CAT_ID":"53196","SITE":"AFWTR","REF_FRAME":"TEME","REV_AT_EPOCH":"4190","EPHEMERIS_TYPE":"0","DECAY_DATE":null,"MEAN_ELEMENT_THEORY":"SGP4","OBJECT_TYPE":"PAYLOAD","OBJECT_NAME":"STARLINK-4407","PERIAPSIS":"561.237","TLE_LINE2":"2 53196  97.6514 173.0112 0002487 197.3198 162.7941 15.01275926 41904","OBJECT_ID":"2022-084H","ECCENTRICITY":"0.00024870","ARG_OF_PERICENTER":"197.3198","INCLINATION":"97.6514","GP_ID":"230498681","TLE_LINE1":"1 53196U 22084H   23111.13318865  .00001131  00000-0  92567-4 0  9992","COUNTRY_CODE":"US","SEMIMAJOR_AXIS":"6941.098","CLASSIFICATION_TYPE":"U","RCS_SIZE":"LARGE","MEAN_MOTION_DOT":"0.00001131","PERIOD":"95.918","LAUNCH_DATE":"2022-07-22","CENTER_NAME":"EARTH"},{"OBJECT_ID":"2022-084J","TLE_LINE2":"2 53197  97.6582 173.8005 0002354 221.9936 138.1108 15.01264983 41369","PERIAPSIS":"561.363","OBJECT_TYPE":"PAYLOAD","OBJECT_NAME":"STARLINK-4403","MEAN_ELEMENT_THEORY":"SGP4","DECAY_DATE":null,"EPHEMERIS_TYPE":"0","REV_AT_EPOCH":"4136","LAUNCH_DATE":"2022-07-22","CENTER_NAME":"EARTH","PERIOD":"95.919","MEAN_MOTION_DOT":"0.00001503","RCS_SIZE":"LARGE","CLASSIFICATION_TYPE":"U","GP_ID":"230529074","TLE_LINE1":"1 53197U 22084J   23111.92723044  .00001503  00000-0  12158-3 0  9999","SEMIMAJOR_AXIS":"6941.131","COUNTRY_CODE":"US","ECCENTRICITY":"0.00023540","ARG_OF_PERICENTER":"221.9936","INCLINATION":"97.6582","FILE":"3891716","APOAPSIS":"564.630","MEAN_MOTION_DDOT":"0.0000000000000","TIME_SYSTEM":"UTC","MEAN_MOTION":"15.01264983","SITE":"AFWTR","REF_FRAME":"TEME","EPOCH":"2023-04-21T22:15:12.710016","NORAD_CAT_ID":"53197","BSTAR":"0.00012158000000","ELEMENT_SET_NO":"999","RA_OF_ASC_NODE":"173.8005","MEAN_ANOMALY":"138.1108"},{"RCS_SIZE":"LARGE","PERIOD":"95.919","MEAN_MOTION_DOT":"0.00000596","LAUNCH_DATE":"2022-07-22","CENTER_NAME":"EARTH","INCLINATION":"97.6557","ARG_OF_PERICENTER":"211.5499","ECCENTRICITY":"0.00033380","TLE_LINE1":"1 53198U 22084K   23111.13110417  .00000596  00000-0  51036-4 0  9997","SEMIMAJOR_AXIS":"6941.138","GP_ID":"230497681","COUNTRY_CODE":"US","CLASSIFICATION_TYPE":"U","PERIAPSIS":"560.686","TLE_LINE2":"2 53198  97.6557 173.0137 0003338 211.5499 148.5525 15.01262833 41902","OBJECT_ID":"2022-084K","REV_AT_EPOCH":"4190","EPHEMERIS_TYPE":"0","DECAY_DATE":null,"MEAN_ELEMENT_THEORY":"SGP4","OBJECT_TYPE":"PAYLOAD","OBJECT_NAME":"STARLINK-4385","ELEMENT_SET_NO":"999","BSTAR":"0.00005103600000","NORAD_CAT_ID":"53198","EPOCH":"2023-04-21T03:08:47.400288","REF_FRAME":"TEME","SITE":"AFWTR","MEAN_ANOMALY":"148.5525","RA_OF_ASC_NODE":"173.0137","TIME_SYSTEM":"UTC","MEAN_MOTION_DDOT":"0.0000000000000","APOAPSIS":"565.320","FILE":"3891529","MEAN_MOTION":"15.01262833"},{"MEAN_MOTION_DOT":"0.00002330","PERIOD":"95.919","LAUNCH_DATE":"2022-07-22","CENTER_NAME":"EARTH","RCS_SIZE":"LARGE","GP_ID":"230530076","TLE_LINE1":"1 53199U 22084L   23111.92538063  .00002330  00000-0  18594-3 0  9995","SEMIMAJOR_AXIS":"6941.139","COUNTRY_CODE":"US","CLASSIFICATION_TYPE":"U","INCLINATION":"97.6587","ARG_OF_PERICENTER":"235.9272","ECCENTRICITY":"0.00019450","OBJECT_ID":"2022-084L","PERIAPSIS":"561.654","TLE_LINE2":"2 53199  97.6587 173.8007 0001945 235.9272 124.1768 15.01262505 41366","DECAY_DATE":null,"MEAN_ELEMENT_THEORY":"SGP4","OBJECT_TYPE":"PAYLOAD","OBJECT_NAME":"STARLINK-4395","REV_AT_EPOCH":"4136","EPHEMERIS_TYPE":"0","SITE":"AFWTR","REF_FRAME":"TEME","BSTAR":"0.00018594000000","ELEMENT_SET_NO":"999","EPOCH":"2023-04-21T22:12:32.886432","NORAD_CAT_ID":"53199","RA_OF_ASC_NODE":"173.8007","MEAN_ANOMALY":"124.1768","MEAN_MOTION_DDOT":"0.0000000000000","FILE":"3891716","APOAPSIS":"564.354","TIME_SYSTEM":"UTC","MEAN_MOTION":"15.01262505"},{"TLE_LINE2":"2 53200  97.6567 173.4707 0002474 223.7213 136.3816 15.01262232 41971","PERIAPSIS":"561.288","OBJECT_ID":"2022-084M","EPHEMERIS_TYPE":"0","REV_AT_EPOCH":"4197","OBJECT_TYPE":"PAYLOAD","OBJECT_NAME":"STARLINK-4417","MEAN_ELEMENT_THEORY":"SGP4","DECAY_DATE":null,"RCS_SIZE":"LARGE","LAUNCH_DATE":"2022-07-22","CENTER_NAME":"EARTH","MEAN_MOTION_DOT":"0.00001565","PERIOD":"95.919","INCLINATION":"97.6567","ECCENTRICITY":"0.00024740","ARG_OF_PERICENTER":"223.7213","CLASSIFICATION_TYPE":"U","TLE_LINE1":"1 53200U 22084M   23111.59582190  .00001565  00000-0  12639-3 0  9994","GP_ID":"230528830","COUNTRY_CODE":"US","SEMIMAJOR_AXIS":"6941.140","TIME_SYSTEM":"UTC","FILE":"3891716","APOAPSIS":"564.722","MEAN_MOTION_DDOT":"0.0000000000000","MEAN_MOTION":"15.01262232","EPOCH":"2023-04-21T14:17:59.012160","NORAD_CAT_ID":"53200","BSTAR":"0.00012639000000","ELEMENT_SET_NO":"999","SITE":"AFWTR","REF_FRAME":"TEME","MEAN_ANOMALY":"136.3816","RA_OF_ASC_NODE":"173.4707"}];
